IRIDIUM 106             
1 41917U 17003A   24362.85465403  .00000050  00000+0  10781-4 0  9990
2 41917  86.3972 312.6509 0001965  91.2842 268.8579 14.34217625416339
IRIDIUM 103             
1 41918U 17003B   24362.42335701  .00000200  00000+0  64529-4 0  9997
2 41918  86.3971 312.7324 0001723  66.9540 293.1838 14.34218533416294
IRIDIUM 109             
1 41919U 17003C   24362.77854481 -.00000068  00000+0 -31233-4 0  9997
2 41919  86.3970 312.6352 0002157  78.6515 281.4923 14.34217071416312
IRIDIUM 102             
1 41920U 17003D   24362.81659653 -.00000046  00000+0 -23618-4 0  9992
2 41920  86.3968 312.5539 0002073  87.4892 272.6541 14.34220164416405
IRIDIUM 105             
1 41921U 17003E   24362.78733709  .00000859  00000+0  29966-3 0  9995
2 41921  86.3969 280.9876 0002054  84.5564 275.5866 14.34223696418252
IRIDIUM 104             
1 41922U 17003F   24362.82928290  .00000124  00000+0  37102-4 0  9999
2 41922  86.3970 312.5830 0002471  73.3426 286.8041 14.34218986416392
IRIDIUM 114             
1 41923U 17003G   24362.83562540  .00000324  00000+0  10852-3 0  9997
2 41923  86.3971 312.5657 0001955  80.5722 279.5694 14.34218359416371
IRIDIUM 108             
1 41924U 17003H   24363.28252762  .00000798  00000+0  27775-3 0  9997
2 41924  86.3964 280.6928 0002051  88.4558 271.6873 14.34217199418311
